#dP2021  1 18  0  0  0.00000000      96 __u+U ITR00 FIT  IAC
## 2141  86400.00000000   900.00000000 59232 0.0000000000000
+  116   C01C02C03C05C06C07C08C09C10C11C12C13C14C16C19C20C21
+        C22C23C24C25C26C27C28C29C30C32C33C34C35C36C37E01E02
+        E03E04E05E07E08E09E11E12E13E14E15E18E19E21E24E25E26
+        E27E30E31E33E36G01G02G03G04G05G06G07G08G09G10G11G12
+        G13G14G15G16G17G18G19G20G21G22G23G24G25G26G27G28G29
+        G30G31G32J01J02J03J07R01R02R03R04R05R06R07R08R09R10
+        R11R12R13R14R15R16R17R18R19R20R21R22R23R24  0  0  0
++        13 13 14  0  8  9  9  8  8  8  8  9  8  8  8  8  8
++         8  8  8  8  8  8  8  8  8  8  9  8  8  8  9  4  4
++         5  5  5  4  4  5  5  4  5  5  5  4  4  4  4  4  4
++         5  5  4  4  5  4  4  4  4  4  4  4  4  4  3  4  4
++         4  3  4  4  4  4  4  4  4  4  4  4  4  4  4  4  4
++         4  4  3  9  9  9 14  6  6  6  6  6 13  6  6  6 13
++         7  6  7  6  6  6  6  6  6  7  6  7 13  6  0  0  0
%c M  cc GPS ccc cccc cccc cccc cccc ccccc ccccc ccccc ccccc
%c cc cc ccc ccc cccc cccc cccc cccc ccccc ccccc ccccc ccccc
%f  0.0000000  0.000000000  0.00000000000  0.000000000000000
%f  0.0000000  0.000000000  0.00000000000  0.000000000000000
%i    0    0    0    0      0      0      0      0         0
%i    0    0    0    0      0      0      0      0         0
/* INFORMATION & ANALYSIS CENTER (IAC)            RAPID DATA
/* S/V CLOCKS ARE ALIGNED TO GNSS TIME                      
/* G:C1WC2W R:C1PC2P E:C1XC5X C:C2IC6I J:C1CC2S             
/* PCV:IGS14_2134 OL/AL:FES2004  NONE     YN ORB:CoN CLK:CoN
*  2021 01 18  7 45  0.00000000
PC01 -34372.685111  24468.581327    339.680838   -661.871512
PC02   4437.533884  41884.284455   -962.515588    585.045884
PC03 -14725.347704  39479.768496  -1435.382580   -511.833240
PC05      0.000000      0.000000      0.000000 999999.999999
PC06 -20739.474076  35864.160982   6797.275621     14.750288
PC07  -6658.224817  32566.022301  26458.291949   -238.286276
PC08 -17897.376810  18146.229106 -33567.654612   -908.201919
PC09  -9098.321047  35168.282755  21292.782990    795.598756
PC10   4066.970978  38067.103741  18343.064204   -102.038620
PC11 -14560.535381  -6854.158440  22872.874776   -894.121134
PC12   1675.805530 -19714.911997  19712.745105    737.317099
PC13   -639.039997  22720.041816 -35409.403970    102.802853
PC14 -15455.585342 -17892.704026 -14761.541296    -70.827122
PC16 -20093.285398  36218.526326   7376.437804   -663.681648
PC19  16981.164246   8198.964634  20596.088649    695.105486
PC20  12107.798128  23886.886930   7901.116010   -909.717540
PC21    308.078741 -25995.243561  10137.294754   -797.867818
PC22  12166.128276 -12657.381867  21685.792053   -848.468777
PC23 -21126.596936   6674.287566  16971.814657   -880.596231
PC24 -16754.312610 -16147.763804 -15439.515060   -743.757951
PC25 -27285.504747  -5677.833107   1654.838785   -901.448000
PC26   1709.695288 -16220.648390 -22654.165624    961.318190
PC27 -10422.388418  22417.813611 -12939.315029    468.332480
PC28 -21839.908858  16820.423172   4367.076369   -120.353922
PC29  20331.342905  -2154.959132 -18996.798584    340.142471
PC30   7193.474149  14928.614794 -22448.449855    432.773071
PC32   -106.721875  26004.088629 -10118.679497   -884.380699
PC33 -17035.617451  -8186.752362 -20524.475488   -920.479957
PC34  -7736.435588 -14522.995939  22538.566720   -760.538111
PC35  21346.367842 -17402.449715  -4613.820136   -460.278943
PC36  27093.766122   6530.631457  -1330.036566   -774.458199
PC37  -3078.791002  15936.655817  22711.851517   -860.721103
PE01  10036.206630 -13133.941397 -24554.927543  -1027.197262
PE02  -9965.877231  13191.978598  24549.729490    191.879866
PE03 -12961.387957  24268.275621 -10939.688511   -388.613913
PE04    700.425273 -28683.454092  -7283.553043   -691.214280
PE05 -17791.082902   5536.995757 -23003.605532   -311.958776
PE07  12195.301797  16244.120230  21532.932353   -489.177865
PE08   -384.056862  28614.679602   7579.829920   6060.333577
PE09 -12238.383943 -15992.399353 -21692.741841   5795.281519
PE11 -19401.019054  -7903.024618  20907.748525   6452.787396
PE12   1639.006596 -17205.676756  24041.419084   5401.032636
PE13  19093.562519   8008.460253 -21142.785100    410.468024
PE14  -8579.160232 -13610.800950  16926.115180  -1298.733486
PE15  -1529.273136  17114.313288 -24087.589822    833.716044
PE18  13380.070238  17193.397717 -24267.694525  -1419.457403
PE19  13933.506162 -22715.439886  12890.626228    181.292599
PE21  22797.597953   3704.745174 -18508.370208   -643.487629
PE24 -22373.755966 -19384.771085    897.377374   -695.716677
PE25 -22875.254825  -3878.675521  18392.434655   -524.564379
PE26  28519.153467  -6071.299732  -5073.505993   2252.050847
PE27  22695.548791  18928.517885  -1508.196470     48.726778
PE30   8441.609017  22864.521031  16772.076915   3253.671354
PE31  -9275.182065 -22934.090921 -16254.954995   -477.463240
PE33  21215.923434 -16147.860534  12876.094984   -464.956647
PE36 -28448.563392   5768.360218   5798.709262    452.706060
PG01   7840.019670  13753.233714 -21623.101417    778.197137
PG02  15940.846777 -14355.693268  16325.858054   -567.244040
PG03  12486.820994  23019.108279  -4827.689108    -59.292118
PG04   1836.068953  21291.582508  15740.823421   -173.609292
PG05   3128.611800 -17986.630063  19076.944251    -31.298067
PG06  25466.113336  -5877.956130   4938.907018     -4.508344
PG07  22027.344767   7631.086038  13498.508331     25.920985
PG08  -3545.867330  24466.644394  -9295.826495     -7.032614
PG09  11411.289097  11348.215849  21060.884306   -313.944564
PG10 -18865.947232  -4848.336287 -18072.598505    -41.735573
PG11  -1384.582495  18757.214608 -19327.954241    -49.812455
PG12  -8170.817980 -24014.083024  -8376.870380     11.364866
PG13  13030.491258 -23032.049775  -1439.114926     87.167244
PG14  19006.155603   7086.373505 -17158.249667     87.148612
PG15   -202.866855 -24464.779213 -10240.802114   -175.547937
PG16  -5705.415307  16478.417894  19654.776399   -266.777079
PG17  17408.665382  -6782.588688 -18438.614302    381.696084
PG18 -23405.535527  -5884.931936  11151.580905    342.047076
PG19  18490.347583 -13162.007665 -14003.870134    -50.400643
PG20 -21452.667953 -13686.855459  -8136.862788    525.113518
PG21  -1141.893210  15230.305400 -20957.327952     87.813453
PG22   7272.321934  22286.661801 -12440.673322   -696.158598
PG23 -19905.278496 -14217.019271 -10419.699720    116.479300
PG24  -3160.423819 -15572.304634 -21522.254064      3.525168
PG25 -17592.430358 -19650.738440   3966.622073     62.111715
PG26 -13792.555347   7522.893747  21386.447219     31.635237
PG27 -12370.984603  23103.424886   2713.437972    -58.348436
PG28  17492.214438   4561.851786 -18827.365687    628.139380
PG29  -9373.874914 -12558.704701  21399.935961   -277.977713
PG30  26519.465879    261.676915   2973.792300   -370.744754
PG31 -24849.324796   6953.380076   7176.465596    -94.599449
PG32 -17493.841925   7945.093818 -18174.194835     14.875984
PJ01 -20333.606571  27829.323181 -19729.146292   -336.902793
PJ02 -27052.807433  20362.256868  30010.528377      0.841248
PJ03 -33451.864706  25829.397259   4879.792462     -0.158322
PJ07 -25366.015927  33677.023102    -50.215753      0.056079
PR01   6888.466875 -17152.557107  17570.753381     73.648360
PR02  -2572.196687 -25347.616956  -1771.770753    463.343010
PR03  -9465.322912 -16115.763249 -17350.512890     29.353337
PR04 -10678.253467   2121.324446 -23045.379148     70.454456
PR05  -6067.013423  19086.463881 -15775.262728     64.937372
PR06   3747.846101  25064.433843   2758.809414    191.164678
PR07   9643.828423  15449.675006  17869.415558    -42.201224
PR08  10821.046627  -2189.368045  23045.331735    -56.910232
PR09   8955.366875  14524.418861  19000.280322     19.204132
PR10  21378.202561  12770.849773   5329.476854    -65.628854
PR11  21982.842813   3730.034069 -12387.874482      4.425818
PR12   9184.553836  -7506.146745 -22556.254395    197.605712
PR13  -8610.551760 -14201.154511 -19382.555635    -49.474182
PR14 -21686.713121 -12687.354837  -4374.741341     59.977545
PR15 -21810.424558  -3765.006403  12703.722859    105.831990
PR16  -8396.140525   8259.418428  22613.770436    -10.330686
PR17 -11804.297562  -4240.102692  22233.147141    392.255935
PR18 -21216.960534   7789.996897  11792.697476     63.546348
PR19 -20152.642430  15033.164341  -4307.448449   -128.375747
PR20  -5573.817990  14237.353109 -20389.129479   -431.392404
PR21  12610.891910   3431.700324 -21892.874234   -181.215738
PR22  21583.059174  -8512.081684 -10717.614840    -93.107072
PR23  15753.096437 -16523.681088  11380.602323    360.193571
PR24   4489.926248 -14422.401559  20574.658310     28.206698
EOF
